{"type":"FeatureCollection", "features": [
{"type":"Feature","geometry":{"type":"Polygon","coordinates":[[[-59.55,-80.05],[-64.5,-80.9],[-60.15,-81],[-59.55,-80.05]]]},"properties":{"featurecla":"Land","scalerank":1,"min_zoom":1}},
{"type":"Feature","geometry":{"type":"Polygon","coordinates":[[[-159.2,-79.5],[-161.25,-78.4],[-163.7,-78.6],[-159.2,-79.5]]]},"properties":{"featurecla":"Land","scalerank":1,"min_zoom":1}},
{"type":"Feature","geometry":{"type":"Polygon","coordinates":[[[-45.15,-78.05],[-48.65,-78.05],[-51.85,-79.95],[-50.5,-81.05],[-43.35,-80.05],[-43.9,-78.5],[-45.15,-78.05]]]},"properties":{"featurecla":"Land","scalerank":1,"min_zoom":0}},
{"type":"Feature","geometry":{"type":"Polygon","coordinates":[[[-121.2,-73.5],[-121.6,-74],[-119.3,-73.85],[-121.2,-73.5]]]},"properties":{"featurecla":"Land","scalerank":1,"min_zoom":1}},
{"type":"Feature","geometry":{"type":"Polygon","coordinates":[[[-125.55,-73.5],[-126.55,-73.25],[-127.3,-73.45],[-125.9,-73.75],[-125.55,-73.5]]]},"properties":{"featurecla":"Land","scalerank":1,"min_zoom":1}},
{"type":"Feature","geometry":{"type":"Polygon","coordinates":[[[-99,-71.95],[-101.7,-71.7],[-100.8,-72.5],[-99,-71.95]]]},"properties":{"featurecla":"Land","scalerank":1,"min_zoom":1}},
{"type":"Feature","geometry":{"type":"Polygon","coordinates":[[[-68.45,-70.95],[-69.7,-69.25],[-71.75,-69.5],[-72.05,-71.2],[-75,-71.65],[-74.2,-72.35],[-71.1,-72.5],[-68.8,-72.15],[-68.45,-70.95]]]},"properties":{"featurecla":"Land","scalerank":1,"min_zoom":1}},
{"type":"Feature","geometry":{"type":"Polygon","coordinates":[[[-58.6,-64.15],[-59.9,-63.95],[-63,-64.65],[-66.05,-66.2],[-67.75,-67.35],[-67.45,-68.15],[-68.5,-70.1],[-67.25,-71.65],[-67.35,-72.5],[-68.95,-73],[-72.85,-73.4],[-76.2,-73.95],[-77.95,-73.4],[-81.45,-73.85],[-88.4,-73],[-92.45,-73.15],[-96.35,-73.6],[-100.3,-72.75],[-103.7,-72.6],[-103.1,-73.75],[-101.25,-74.2],[-100.65,-75.3],[-104.9,-74.95],[-107.55,-75.2],[-113.95,-73.7],[-116.2,-74.25],[-125.4,-74.5],[-128.25,-74.3],[-135.2,-74.3],[-144.3,-75.55],[-146.1,-76.5],[-151.35,-77.4],[-153.75,-77.05],[-156.95,-77.3],[-158.05,-78.05],[-155.35,-79.05],[-149.55,-79.35],[-146.75,-79.95],[-147.2,-80.65],[-152.85,-82.05],[-153.6,-83.7],[-142.9,-84.55],[-148.55,-85.6],[-167,-84.55],[-179.95,-84.7],[-180,-84.7],[-180,-90],[180,-90],[180,-84.7],[176,-84.15],[162.5,-82.05],[159.8,-80.95],[161.75,-79.15],[167,-78.75],[164.75,-78.2],[163.5,-77.05],[164.25,-75.45],[166.1,-74.4],[169.3,-73.65],[171.2,-71.7],[168.45,-70.95],[162.7,-70.75],[159.2,-69.6],[156.8,-69.4],[154.3,-68.55],[152.5,-68.85],[146.65,-67.9],[145.5,-66.9],[143.05,-66.8],[137.45,-66.95],[135.85,-66.05],[130.8,-66.45],[128.8,-66.75],[122.3,-66.55],[120.85,-67.2],[118.6,-67.15],[115.6,-66.7],[113.6,-65.9],[110.25,-66.7],[106.2,-66.95],[102.85,-65.55],[99.7,-67.25],[95.8,-67.4],[95,-67.15],[90.65,-67.25],[87.5,-66.9],[82.8,-67.2],[79.1,-68.35],[77.65,-69.45],[73.85,-69.85],[71,-72.1],[67.95,-71.85],[68.95,-71.05],[67.8,-70.3],[69.55,-69.7],[68.9,-67.95],[64.05,-67.4],[62.4,-68],[58.75,-67.3],[56.35,-65.95],[54.55,-65.8],[52.6,-66.05],[46.5,-67.6],[40,-69.1],[38.65,-69.8],[33.85,-68.5],[32.75,-69.4],[27.1,-70.45],[23.65,-70.5],[19.25,-69.9],[13.4,-69.95],[10.8,-70.85],[9.55,-70],[7.15,-70.25],[0.85,-71.3],[-1.8,-71.15],[-4.35,-71.45],[-6.85,-70.95],[-7.4,-71.7],[-10.3,-71.25],[-13.3,-72.7],[-15.45,-73.15],[-16.45,-73.85],[-15.7,-74.5],[-21.2,-75.9],[-28.9,-76.65],[-35.8,-78.35],[-35.65,-79.45],[-29.7,-79.25],[-28.55,-80.35],[-40.75,-81.35],[-42.8,-82.1],[-49.75,-81.75],[-57,-82.85],[-63.25,-81.75],[-75.35,-80.25],[-78,-79.2],[-77.95,-78.4],[-73.65,-77.9],[-77.25,-76.7],[-70.6,-76.65],[-69.8,-76.2],[-64.35,-75.25],[-61.95,-74.45],[-60.7,-73.15],[-61.5,-71.1],[-63.2,-69.25],[-64.8,-68.7],[-65.5,-67.6],[-63.75,-66.5],[-62.1,-66.2],[-62.5,-65.1],[-60.6,-64.3],[-58.6,-64.15]]]},"properties":{"featurecla":"Land","scalerank":0,"min_zoom":0}},
{"type":"Feature","geometry":{"type":"Polygon","coordinates":[[[-67.75,-53.85],[-68.65,-52.65],[-70.25,-52.95],[-71.1,-54.05],[-72.45,-53.7],[-73.3,-53.95],[-71,-55.05],[-68.15,-55.6],[-65.5,-55.2],[-67.75,-53.85]]]},"properties":{"featurecla":"Land","scalerank":0,"min_zoom":0}},
{"type":"Feature","geometry":{"type":"Polygon","coordinates":[[[-58.55,-51.1],[-60,-51.25],[-61.2,-51.85],[-60.7,-52.3],[-58.05,-51.9],[-58.55,-51.1]]]},"properties":{"featurecla":"Land","scalerank":0,"min_zoom":0.5}},
{"type":"Feature","geometry":{"type":"Polygon","coordinates":[[[70.3,-49.7],[70.55,-49.05],[68.95,-48.6],[68.75,-49.75],[70.3,-49.7]]]},"properties":{"featurecla":"Land","scalerank":0,"min_zoom":0.5}},
{"type":"Feature","geometry":{"type":"Polygon","coordinates":[[[145.4,-40.8],[144.7,-41.15],[146.05,-43.55],[146.85,-43.65],[148.35,-42.05],[148.3,-40.9],[146.35,-41.15],[145.4,-40.8]]]},"properties":{"featurecla":"Land","scalerank":0,"min_zoom":0}},
{"type":"Feature","geometry":{"type":"Polygon","coordinates":[[[173,-40.9],[172.1,-40.95],[171.15,-42.5],[167.05,-45.1],[166.7,-46.2],[169.35,-46.65],[170.6,-45.9],[171.45,-44.25],[172.3,-43.85],[174.25,-41.75],[173.95,-40.95],[173,-40.9]]]},"properties":{"featurecla":"Land","scalerank":0,"min_zoom":0}},
{"type":"Feature","geometry":{"type":"Polygon","coordinates":[[[174.6,-36.15],[174.35,-35.25],[173.05,-35.25],[174.7,-37.4],[174.55,-38.8],[173.8,-39.5],[174.9,-39.9],[175.25,-40.45],[174.65,-41.3],[176,-41.3],[177.05,-39.9],[177.95,-39.15],[178.5,-37.7],[176.75,-37.9],[175.35,-37.2],[174.6,-36.15]]]},"properties":{"featurecla":"Land","scalerank":0,"min_zoom":0}},
{"type":"Feature","geometry":{"type":"Polygon","coordinates":[[[167.1,-22.15],[165,-20.45],[165.45,-21.7],[166.75,-22.4],[167.1,-22.15]]]},"properties":{"featurecla":"Land","scalerank":1,"min_zoom":1}},
{"type":"Feature","geometry":{"type":"Polygon","coordinates":[[[178.35,-17.35],[177.65,-17.4],[177.4,-18.15],[178.55,-18.15],[178.35,-17.35]]]},"properties":{"featurecla":"Land","scalerank":0,"min_zoom":0.5}},
{"type":"Feature","geometry":{"type":"Polygon","coordinates":[[[179.35,-16.8],[180,-16.55],[180,-16.05],[178.6,-16.65],[179.35,-16.8]]]},"properties":{"featurecla":"Land","scalerank":0,"min_zoom":1.5}},
{"type":"Feature","geometry":{"type":"Polygon","coordinates":[[[-179.9,-16.5],[-179.8,-16],[-180,-16.05],[-180,-16.55],[-179.9,-16.5]]]},"properties":{"featurecla":"Land","scalerank":1,"min_zoom":1.5}},
{"type":"Feature","geometry":{"type":"Polygon","coordinates":[[[167.85,-16.45],[167.2,-15.9],[167.2,-16.15],[167.5,-16.6],[167.85,-16.45]]]},"properties":{"featurecla":"Land","scalerank":1,"min_zoom":1.5}},
{"type":"Feature","geometry":{"type":"Polygon","coordinates":[[[167.1,-14.95],[166.8,-15.65],[167.25,-15.75],[167.1,-14.95]]]},"properties":{"featurecla":"Land","scalerank":1,"min_zoom":1}},
{"type":"Feature","geometry":{"type":"Polygon","coordinates":[[[50.05,-13.55],[49.2,-12.05],[48.85,-13.1],[47.7,-14.6],[46.3,-15.8],[44.45,-16.2],[43.95,-17.4],[44.45,-19.45],[44.35,-20.05],[43.45,-21.35],[43.25,-22.05],[44.05,-25],[45.4,-25.6],[47.1,-24.95],[48.55,-20.5],[49.45,-17.95],[49.5,-17.1],[50.5,-15.25],[50.05,-13.55]]]},"properties":{"featurecla":"Land","scalerank":0,"min_zoom":0}},
{"type":"Feature","geometry":{"type":"Polygon","coordinates":[[[143.55,-13.75],[143.5,-12.85],[142.85,-11.8],[142.5,-10.65],[141.7,-12.4],[141.5,-13.7],[141.7,-15.05],[140.9,-17.35],[140.2,-17.7],[139.25,-17.35],[137.05,-15.85],[135.5,-15],[135.45,-14.7],[136.95,-12.35],[136.5,-11.85],[135.3,-12.25],[133.55,-11.8],[133,-11.4],[132.6,-12.1],[131.2,-12.2],[130.6,-12.55],[129.4,-14.4],[128.35,-14.85],[127.05,-13.8],[125.7,-14.25],[123.8,-16.1],[123,-16.4],[122.3,-17.25],[122.25,-18.2],[120.85,-19.7],[119.25,-19.95],[117.45,-20.75],[116.7,-20.7],[114.65,-21.85],[113.85,-23.05],[113.4,-24.4],[113.45,-25.6],[114.15,-28.1],[115.05,-29.45],[115.15,-30.6],[115.8,-32.2],[115.55,-33.5],[115.05,-34.2],[116.65,-35.05],[118,-35.05],[119.9,-34],[121.3,-33.8],[123.65,-33.9],[124.2,-32.95],[126.15,-32.2],[127.1,-32.3],[129.55,-31.6],[131.35,-31.5],[133,-32],[134.25,-32.6],[136,-34.9],[136.35,-34.1],[137.9,-33.65],[137.35,-34.7],[138.1,-35.6],[139.55,-36.15],[140,-37.4],[140.65,-38],[143.6,-38.8],[144.5,-38.1],[146.3,-39.05],[148.3,-37.8],[150,-37.45],[150.1,-36.4],[151,-34.3],[151.7,-33.05],[152.45,-32.55],[152.9,-31.65],[153.55,-28.1],[153.1,-27.25],[153.15,-26.05],[152.85,-25.25],[150.9,-23.45],[150.75,-22.4],[149.7,-22.35],[148.85,-20.4],[146.4,-18.95],[146.15,-17.75],[145.65,-16.8],[145.35,-15],[144.55,-14.15],[143.9,-14.55],[143.55,-13.75]]]},"properties":{"featurecla":"Land","scalerank":0,"min_zoom":0}},
{"type":"Feature","geometry":{"type":"Polygon","coordinates":[[[162.1,-10.5],[161.3,-10.2],[161.7,-10.8],[162.1,-10.5]]]},"properties":{"featurecla":"Land","scalerank":1,"min_zoom":1.5}},
{"type":"Feature","geometry":{"type":"Polygon","coordinates":[[[120.7,-10.25],[119.9,-9.35],[118.95,-9.55],[120.3,-10.25],[120.7,-10.25]]]},"properties":{"featurecla":"Land","scalerank":1,"min_zoom":1.5}},
{"type":"Feature","geometry":{"type":"Polygon","coordinates":[[[160.85,-9.85],[160.35,-9.4],[159.7,-9.25],[159.85,-9.8],[160.85,-9.85]]]},"properties":{"featurecla":"Land","scalerank":1,"min_zoom":1}},
{"type":"Feature","geometry":{"type":"Polygon","coordinates":[[[161.7,-9.6],[161.3,-9.1],[160.9,-8.3],[160.6,-8.3],[160.8,-8.9],[161.55,-9.8],[161.7,-9.6]]]},"properties":{"featurecla":"Land","scalerank":1,"min_zoom":1.5}},
{"type":"Feature","geometry":{"type":"Polygon","coordinates":[[[124.45,-10.15],[125.1,-9.4],[125.1,-8.65],[124,-9.3],[124.45,-10.15]]]},"properties":{"featurecla":"Land","scalerank":1,"min_zoom":1}},
{"type":"Feature","geometry":{"type":"Polygon","coordinates":[[[117.9,-8.1],[117.3,-9.05],[119.15,-8.7],[118.9,-8.3],[117.9,-8.1]]]},"properties":{"featurecla":"Land","scalerank":1,"min_zoom":1}},
{"type":"Feature","geometry":{"type":"Polygon","coordinates":[[[122.9,-8.1],[121.35,-8.55],[121.25,-8.95],[122.75,-8.65],[122.9,-8.1]]]},"properties":{"featurecla":"Land","scalerank":1,"min_zoom":1}},
{"type":"Feature","geometry":{"type":"Polygon","coordinates":[[[159.9,-8.35],[159.65,-8],[158.35,-7.3],[158.6,-7.75],[159.15,-8.1],[159.9,-8.35]]]},"properties":{"featurecla":"Land","scalerank":1,"min_zoom":1}},
{"type":"Feature","geometry":{"type":"Polygon","coordinates":[[[157.55,-7.35],[156.55,-6.6],[156.5,-6.75],[156.9,-7.2],[157.55,-7.35]]]},"properties":{"featurecla":"Land","scalerank":1,"min_zoom":1.5}},
{"type":"Feature","geometry":{"type":"Polygon","coordinates":[[[108.6,-6.8],[108.5,-6.4],[107.25,-5.95],[106.05,-5.9],[105.35,-6.85],[106.45,-7.35],[108.3,-7.75],[109.45,-7.75],[111.5,-8.3],[113.45,-8.35],[114.55,-8.75],[115.7,-8.35],[114.5,-7.8],[113,-7.6],[112.6,-6.95],[110.75,-6.45],[110.55,-6.9],[108.6,-6.8]]]},"properties":{"featurecla":"Land","scalerank":0,"min_zoom":0}},
{"type":"Feature","geometry":{"type":"Polygon","coordinates":[[[134.7,-6.2],[134.5,-5.45],[134.1,-6.15],[134.7,-6.2]]]},"properties":{"featurecla":"Land","scalerank":1,"min_zoom":1.5}},
{"type":"Feature","geometry":{"type":"Polygon","coordinates":[[[155.9,-6.8],[155.05,-5.55],[154.75,-5.9],[155.9,-6.8]]]},"properties":{"featurecla":"Land","scalerank":1,"min_zoom":1}},
{"type":"Feature","geometry":{"type":"Polygon","coordinates":[[[152,-5.5],[152.35,-4.3],[150.8,-5.45],[148.3,-5.75],[150.25,-6.3],[152,-5.5]]]},"properties":{"featurecla":"Land","scalerank":1,"min_zoom":1}},
{"type":"Feature","geometry":{"type":"Polygon","coordinates":[[[127.25,-3.45],[127,-3.15],[126,-3.2],[126.2,-3.6],[126.85,-3.8],[127.25,-3.45]]]},"properties":{"featurecla":"Land","scalerank":1,"min_zoom":1.5}},
{"type":"Feature","geometry":{"type":"Polygon","coordinates":[[[130.45,-3.1],[129.35,-2.8],[128.15,-2.85],[127.9,-3.4],[130,-3.45],[130.45,-3.1]]]},"properties":{"featurecla":"Land","scalerank":1,"min_zoom":1}},
{"type":"Feature","geometry":{"type":"Polygon","coordinates":[[[153.15,-4.5],[153,-4],[152.25,-3.25],[152.85,-4.75],[153.15,-4.5]]]},"properties":{"featurecla":"Land","scalerank":1,"min_zoom":1.5}},
{"type":"Feature","geometry":{"type":"Polygon","coordinates":[[[134.15,-1.15],[134,-0.8],[132.4,-0.35],[130.95,-1.45],[131.85,-1.6],[132.25,-2.2],[132,-2.8],[133.65,-3.55],[135.15,-4.45],[136,-4.55],[137.95,-5.4],[138.4,-6.25],[138.65,-7.3],[138.05,-7.6],[137.6,-8.4],[140.15,-8.3],[141.05,-9.1],[142.65,-9.35],[143.4,-9],[143.3,-8.25],[144.75,-7.65],[146.05,-8.05],[146.55,-8.95],[147.9,-10.15],[149.8,-10.4],[149.75,-9.85],[148.75,-9.1],[148.1,-8.05],[147.2,-7.4],[146.95,-6.7],[147.65,-6.1],[146,-5.45],[145.85,-4.9],[144.6,-3.85],[142.75,-3.3],[141,-2.6],[139.95,-2.4],[138.35,-1.7],[137.45,-1.7],[136.3,-2.3],[135.45,-3.35],[134.4,-2.75],[134.15,-1.15]]]},"properties":{"featurecla":"Land","scalerank":0,"min_zoom":0}},
{"type":"Feature","geometry":{"type":"Polygon","coordinates":[[[125.25,1.4],[124.1,0.9],[121.65,1],[120.9,1.3],[120.05,0.55],[118.75,-2.8],[119.5,-3.5],[119.65,-4.45],[119.35,-5.4],[120.45,-5.55],[120.3,-2.95],[121.6,-4.2],[121.75,-4.85],[122.65,-5.65],[123.15,-4.7],[122.25,-3.55],[122.45,-3.2],[121.5,-1.9],[122.4,-1.5],[121.5,-0.95],[120.95,-1.4],[120.05,-0.5],[120.2,0.25],[122.7,0.45],[123.7,0.25],[124.45,0.45],[125.25,1.4]]]},"properties":{"featurecla":"Land","scalerank":0,"min_zoom":0}},
{"type":"Feature","geometry":{"type":"Polygon","coordinates":[[[128.7,1.15],[128.6,1.55],[127.6,1.8],[127.4,1],[128.1,0.35],[128.7,1.15]]]},"properties":{"featurecla":"Land","scalerank":1,"min_zoom":1}},
{"type":"Feature","geometry":{"type":"Polygon","coordinates":[[[105.8,-5.85],[105.85,-4.3],[106.1,-3.05],[105.6,-2.45],[104.9,-2.35],[104.35,-1.1],[103.45,-0.7],[103.85,0.1],[103.1,0.55],[102.5,1.4],[101.65,2.1],[100.65,2.1],[99.7,3.15],[98.35,4.25],[97.5,5.25],[95.3,5.5],[95.4,4.95],[97.2,3.3],[97.7,2.45],[98.6,1.8],[99.25,0.2],[100.15,-0.65],[101.4,-2.8],[102.6,-4.2],[103.85,-5.05],[104.7,-5.85],[105.8,-5.85]]]},"properties":{"featurecla":"Land","scalerank":0,"min_zoom":0}},
{"type":"Feature","geometry":{"type":"Polygon","coordinates":[[[117.9,1.85],[118.05,2.3],[117.3,3.25],[117.9,4.15],[118.6,4.5],[119.2,5.4],[117.7,6],[117.65,6.4],[116.75,6.9],[116.2,6.15],[114.6,4.9],[113,3.1],[111.35,2.7],[111.15,1.85],[110.4,1.65],[109.65,2],[109.05,1.35],[109.1,-0.45],[110.05,-1.6],[110.2,-2.95],[111.7,-3],[112.05,-3.5],[113.25,-3.1],[114.45,-3.5],[114.85,-4.1],[116,-3.65],[116.55,-2.5],[116.55,-1.5],[117.5,-0.8],[117.5,0.1],[117.8,0.8],[119,0.9],[117.9,1.85]]]},"properties":{"featurecla":"Land","scalerank":0,"min_zoom":0}},
{"type":"Feature","geometry":{"type":"Polygon","coordinates":[[[126.4,8.4],[126.2,9.3],[124.75,8.95],[123.85,8.25],[123.5,8.7],[122.3,8.05],[121.9,7.2],[123.3,7.4],[123.95,6.9],[124.2,6.15],[125.4,5.6],[125.7,6.05],[125.35,6.8],[125.85,7.3],[126.55,7.2],[126.4,8.4]]]},"properties":{"featurecla":"Land","scalerank":0,"min_zoom":0}},
{"type":"Feature","geometry":{"type":"Polygon","coordinates":[[[81.2,6.2],[81.65,6.5],[81.8,7.5],[80.85,9.25],[80.15,9.8],[79.7,8.2],[79.85,6.75],[80.35,5.95],[81.2,6.2]]]},"properties":{"featurecla":"Land","scalerank":1,"min_zoom":1}},
{"type":"Feature","geometry":{"type":"Polygon","coordinates":[[[-60.95,10.1],[-60.9,10.85],[-61.7,10.75],[-61.75,10],[-60.95,10.1]]]},"properties":{"featurecla":"Land","scalerank":0,"min_zoom":1}},
{"type":"Feature","geometry":{"type":"Polygon","coordinates":[[[124,10.3],[124.1,11.25],[122.95,10.9],[122.4,9.7],[123,9],[124,10.3]]]},"properties":{"featurecla":"Land","scalerank":1,"min_zoom":1}},
{"type":"Feature","geometry":{"type":"Polygon","coordinates":[[[118.5,9.3],[119.7,10.55],[119.5,11.35],[119,10.4],[118.4,9.7],[118.5,9.3]]]},"properties":{"featurecla":"Land","scalerank":1,"min_zoom":1}},
{"type":"Feature","geometry":{"type":"Polygon","coordinates":[[[121.9,11.9],[122,10.45],[123.1,11.15],[121.9,11.9]]]},"properties":{"featurecla":"Land","scalerank":1,"min_zoom":1}},
{"type":"Feature","geometry":{"type":"Polygon","coordinates":[[[125.5,12.15],[125.25,12.55],[124.25,12.55],[124.9,11.8],[125.5,12.15]]]},"properties":{"featurecla":"Land","scalerank":0,"min_zoom":0}},
{"type":"Feature","geometry":{"type":"Polygon","coordinates":[[[121.55,13.05],[120.3,13.45],[121.25,12.2],[121.55,13.05]]]},"properties":{"featurecla":"Land","scalerank":1,"min_zoom":1.5}},
{"type":"Feature","geometry":{"type":"Polygon","coordinates":[[[121.3,18.5],[120.7,18.5],[120.4,17.6],[120.05,14.95],[121.15,13.65],[122.05,13.8],[122.65,13.2],[123.85,13.25],[123.95,13.8],[122.7,14.35],[121.75,14.35],[121.65,15.95],[122.25,16.25],[122.5,17.1],[121.95,18.2],[121.3,18.5]]]},"properties":{"featurecla":"Land","scalerank":0,"min_zoom":0}},
{"type":"Feature","geometry":{"type":"Polygon","coordinates":[[[-65.6,18.25],[-67.1,18.5],[-67.2,17.95],[-65.6,18.25]]]},"properties":{"featurecla":"Land","scalerank":1,"min_zoom":1}},
{"type":"Feature","geometry":{"type":"Polygon","coordinates":[[[-76.9,17.85],[-76.9,18.4],[-77.8,18.5],[-78.35,18.25],[-77.2,17.7],[-76.9,17.85]]]},"properties":{"featurecla":"Land","scalerank":1,"min_zoom":1}},
{"type":"Feature","geometry":{"type":"Polygon","coordinates":[[[-72.6,19.85],[-72.7,18.45],[-71.7,18.05],[-71,18.3],[-68.3,18.6],[-69.2,19.3],[-69.75,19.3],[-70.8,19.9],[-72.6,19.85]]]},"properties":{"featurecla":"Land","scalerank":0,"min_zoom":0}},
{"type":"Feature","geometry":{"type":"Polygon","coordinates":[[[110.35,18.7],[111,19.7],[110.2,20.1],[109.1,19.8],[108.65,19.35],[108.65,18.5],[109.5,18.2],[110.35,18.7]]]},"properties":{"featurecla":"Land","scalerank":1,"min_zoom":1}},
{"type":"Feature","geometry":{"type":"Polygon","coordinates":[[[-155.55,19.1],[-154.85,19.45],[-155.8,20.25],[-156.05,19.7],[-155.55,19.1]]]},"properties":{"featurecla":"Land","scalerank":0,"min_zoom":0.5}},
{"type":"Feature","geometry":{"type":"Polygon","coordinates":[[[-156.1,20.65],[-156.25,20.9],[-156.7,20.95],[-156.4,20.55],[-156.1,20.65]]]},"properties":{"featurecla":"Land","scalerank":0,"min_zoom":1.5}},
{"type":"Feature","geometry":{"type":"Polygon","coordinates":[[[-156.75,21.2],[-157.25,21.2],[-157.35,21.1],[-156.8,21.05],[-156.75,21.2]]]},"properties":{"featurecla":"Land","scalerank":0,"min_zoom":1.5}},
{"type":"Feature","geometry":{"type":"Polygon","coordinates":[[[-157.65,21.3],[-158.05,21.7],[-158.15,21.3],[-157.65,21.3]]]},"properties":{"featurecla":"Land","scalerank":0,"min_zoom":1}},
{"type":"Feature","geometry":{"type":"Polygon","coordinates":[[[-159.35,22],[-159.6,22.25],[-159.8,22.05],[-159.45,21.9],[-159.35,22]]]},"properties":{"featurecla":"Land","scalerank":0,"min_zoom":1.5}},
{"type":"Feature","geometry":{"type":"Polygon","coordinates":[[[-79.7,22.75],[-80.6,23.1],[-82.25,23.2],[-84.25,22.55],[-83.5,22.15],[-82.8,22.7],[-81.8,22.2],[-78.7,21.6],[-77.75,19.85],[-75.65,19.85],[-74.2,20.3],[-75.6,21],[-76.5,21.2],[-78.35,22.5],[-79.3,22.4],[-79.7,22.75]]]},"properties":{"featurecla":"Land","scalerank":0,"min_zoom":0}},
{"type":"Feature","geometry":{"type":"Polygon","coordinates":[[[-77.55,23.75],[-77.9,25.15],[-78.4,24.6],[-77.55,23.75]]]},"properties":{"featurecla":"Land","scalerank":0,"min_zoom":1}},
{"type":"Feature","geometry":{"type":"Polygon","coordinates":[[[121.2,22.8],[121.95,25],[121.5,25.3],[120.7,24.55],[120.1,23.55],[120.2,22.8],[121.2,22.8]]]},"properties":{"featurecla":"Land","scalerank":1,"min_zoom":1}},
{"type":"Feature","geometry":{"type":"Polygon","coordinates":[[[-77.8,26.6],[-79,26.8],[-78.9,26.4],[-77.8,26.6]]]},"properties":{"featurecla":"Land","scalerank":0,"min_zoom":1.5}},
{"type":"Feature","geometry":{"type":"Polygon","coordinates":[[[-77,26.6],[-77.35,26.55],[-77.35,26],[-77.15,25.9],[-77,26.6]]]},"properties":{"featurecla":"Land","scalerank":0,"min_zoom":1.5}},
{"type":"Feature","geometry":{"type":"Polygon","coordinates":[[[134.65,34.15],[133.9,34.35],[132.9,34.05],[133.3,33.3],[134.2,33.2],[134.65,34.15]]]},"properties":{"featurecla":"Land","scalerank":1,"min_zoom":1.5}},
{"type":"Feature","geometry":{"type":"Polygon","coordinates":[[[34.6,35.65],[32.25,35.1],[33,34.55],[34,35],[34.6,35.65]]]},"properties":{"featurecla":"Land","scalerank":1,"min_zoom":1}},
{"type":"Feature","geometry":{"type":"Polygon","coordinates":[[[23.7,35.7],[23.5,35.3],[26.15,35],[26.3,35.3],[24.25,35.35],[23.7,35.7]]]},"properties":{"featurecla":"Land","scalerank":1,"min_zoom":1}},
{"type":"Feature","geometry":{"type":"Polygon","coordinates":[[[15.5,38.25],[13.75,38.05],[12.55,38.15],[12.45,37.6],[15.1,36.6],[15.5,38.25]]]},"properties":{"featurecla":"Land","scalerank":1,"min_zoom":1}},
{"type":"Feature","geometry":{"type":"Polygon","coordinates":[[[9.2,41.2],[8.4,40.4],[8.45,39.15],[9.65,39.2],[9.8,40.5],[9.2,41.2]]]},"properties":{"featurecla":"Land","scalerank":1,"min_zoom":1}},
{"type":"Feature","geometry":{"type":"Polygon","coordinates":[[[141,37.15],[140.95,38.15],[141.9,39.2],[141.9,40],[141.35,41.4],[140.3,41.2],[139.9,40.55],[140.05,39.45],[139.45,38.2],[137.4,36.85],[136.7,37.3],[135.7,35.55],[134.6,35.75],[132.6,35.45],[130.9,34.25],[130.35,33.6],[129.4,33.3],[130.45,32.3],[130.2,31.4],[131.35,31.45],[132.15,33.9],[133.35,34.4],[135.1,34.6],[135.1,33.85],[135.8,33.45],[137.2,34.6],[139,34.65],[140.25,35.15],[140.75,35.85],[141,37.15]]]},"properties":{"featurecla":"Land","scalerank":0,"min_zoom":0}},
{"type":"Feature","geometry":{"type":"Polygon","coordinates":[[[9.55,42.15],[9.4,43],[8.55,42.25],[9.55,42.15]]]},"properties":{"featurecla":"Land","scalerank":1,"min_zoom":1}},
{"type":"Feature","geometry":{"type":"Polygon","coordinates":[[[143.9,44.15],[141.95,45.55],[141.4,43.4],[140.3,43.35],[139.8,42.55],[139.95,41.55],[141.05,41.6],[141.6,42.7],[143.2,42],[144.05,43],[145.55,43.25],[143.9,44.15]]]},"properties":{"featurecla":"Land","scalerank":0,"min_zoom":0}},
{"type":"Feature","geometry":{"type":"Polygon","coordinates":[[[-63.65,46.55],[-64.15,46.4],[-62.85,45.95],[-62.95,46.4],[-63.65,46.55]]]},"properties":{"featurecla":"Land","scalerank":0,"min_zoom":1}},
{"type":"Feature","geometry":{"type":"Polygon","coordinates":[[[-61.8,49.1],[-62.85,49.7],[-63.6,49.4],[-61.8,49.1]]]},"properties":{"featurecla":"Land","scalerank":0,"min_zoom":1}},
{"type":"Feature","geometry":{"type":"Polygon","coordinates":[[[-123.5,48.5],[-125.75,50.3],[-128.35,50.75],[-128.05,50],[-127.05,49.8],[-125.65,48.85],[-123.5,48.5]]]},"properties":{"featurecla":"Land","scalerank":1,"min_zoom":1}},
{"type":"Feature","geometry":{"type":"Polygon","coordinates":[[[-56.15,50.7],[-57.35,50.7],[-58.4,49.15],[-59.25,48.5],[-59.25,47.6],[-56.25,47.65],[-54.2,46.8],[-53.05,46.65],[-52.65,47.55],[-53.5,49.25],[-55.8,49.6],[-56.15,50.7]]]},"properties":{"featurecla":"Land","scalerank":0,"min_zoom":0}},
{"type":"Feature","geometry":{"type":"Polygon","coordinates":[[[-132.7,54.05],[-133.05,53.4],[-132.05,53],[-131.75,54.1],[-132.7,54.05]]]},"properties":{"featurecla":"Land","scalerank":1,"min_zoom":1}},
{"type":"Feature","geometry":{"type":"Polygon","coordinates":[[[143.65,50.75],[143.25,52.75],[142.6,53.75],[141.7,53.3],[141.6,51.95],[142.2,50.95],[141.9,48.85],[141.9,46.8],[143.55,46.85],[142.55,47.85],[143.15,49.3],[144.65,49],[143.65,50.75]]]},"properties":{"featurecla":"Land","scalerank":0,"min_zoom":0}},
{"type":"Feature","geometry":{"type":"Polygon","coordinates":[[[-6.8,52.25],[-6.05,53.15],[-5.65,54.55],[-7.55,55.15],[-9.7,53.9],[-9.15,52.85],[-10,51.8],[-8.55,51.65],[-6.8,52.25]]]},"properties":{"featurecla":"Land","scalerank":0,"min_zoom":0}},
{"type":"Feature","geometry":{"type":"Polygon","coordinates":[[[12.7,55.6],[12.35,56.1],[10.9,55.8],[12.1,54.8],[12.7,55.6]]]},"properties":{"featurecla":"Land","scalerank":1,"min_zoom":1}},
{"type":"Feature","geometry":{"type":"Polygon","coordinates":[[[-153,57.1],[-153.25,57.95],[-154.65,57.45],[-154,56.75],[-153,57.1]]]},"properties":{"featurecla":"Land","scalerank":1,"min_zoom":1}},
{"type":"Feature","geometry":{"type":"Polygon","coordinates":[[[-3,58.65],[-5,58.65],[-6.15,56.8],[-5.6,55.3],[-3.65,54.6],[-3.1,53.4],[-4.6,53.5],[-5.25,52],[-4.3,51.2],[-4.55,50.35],[-3.6,50.25],[-0.8,50.75],[0.55,50.75],[1.45,51.3],[1.05,51.8],[1.7,52.75],[0.45,52.95],[-0.45,54.45],[-1.1,54.6],[-2.1,55.9],[-1.95,57.7],[-4.05,57.55],[-3,58.65]]]},"properties":{"featurecla":"Land","scalerank":0,"min_zoom":0}},
{"type":"Feature","geometry":{"type":"Polygon","coordinates":[[[-165.6,59.9],[-165.65,60.3],[-167.45,60.2],[-166.2,59.75],[-165.6,59.9]]]},"properties":{"featurecla":"Land","scalerank":0,"min_zoom":1.5}},
{"type":"Feature","geometry":{"type":"Polygon","coordinates":[[[-79.25,62.15],[-80.35,62],[-79.65,61.65],[-79.25,62.15]]]},"properties":{"featurecla":"Land","scalerank":0,"min_zoom":1.5}},
{"type":"Feature","geometry":{"type":"Polygon","coordinates":[[[-81.9,62.7],[-83.25,62.9],[-84,62.45],[-83.05,62.15],[-81.9,62.7]]]},"properties":{"featurecla":"Land","scalerank":0,"min_zoom":1.5}},
{"type":"Feature","geometry":{"type":"Polygon","coordinates":[[[-171.75,63.8],[-169.55,63],[-168.7,63.3],[-171.75,63.8]]]},"properties":{"featurecla":"Land","scalerank":1,"min_zoom":1.5}},
{"type":"Feature","geometry":{"type":"Polygon","coordinates":[[[-85.15,65.65],[-86.35,64.05],[-85.5,63.05],[-83.1,64.1],[-81,63.4],[-80.1,63.75],[-85.15,65.65]]]},"properties":{"featurecla":"Land","scalerank":1,"min_zoom":0.5}},
{"type":"Feature","geometry":{"type":"Polygon","coordinates":[[[-14.5,66.45],[-16.15,66.55],[-17.8,66],[-19.05,66.3],[-20.6,65.75],[-22.15,66.4],[-23.65,66.25],[-23.95,64.9],[-21.8,64.4],[-22.75,63.95],[-18.65,63.5],[-14.9,64.35],[-13.6,65.15],[-14.75,65.8],[-14.5,66.45]]]},"properties":{"featurecla":"Land","scalerank":0,"min_zoom":0}},
{"type":"Feature","geometry":{"type":"Polygon","coordinates":[[[-75.85,67.15],[-75.1,68],[-76.8,68.15],[-77,67.1],[-75.85,67.15]]]},"properties":{"featurecla":"Land","scalerank":0,"min_zoom":1}},
{"type":"Feature","geometry":{"type":"Polygon","coordinates":[[[-175,66.6],[-174.95,67.2],[-180,68.95],[-180,65],[-178.35,65.4],[-173.9,64.3],[-172.55,64.45],[-172.55,65.45],[-169.9,66],[-171.85,66.9],[-174.55,67.05],[-175,66.6]]]},"properties":{"featurecla":"Land","scalerank":0,"min_zoom":0}},
{"type":"Feature","geometry":{"type":"Polygon","coordinates":[[[-95.65,69.1],[-98.2,70.15],[-99.8,69.4],[-98.45,68.95],[-95.65,69.1]]]},"properties":{"featurecla":"Land","scalerank":1,"min_zoom":1.5}},
{"type":"Feature","geometry":{"type":"Polygon","coordinates":[[[180,70.85],[180,71.5],[178.75,71.1],[180,70.85]]]},"properties":{"featurecla":"Land","scalerank":0,"min_zoom":1}},
{"type":"Feature","geometry":{"type":"Polygon","coordinates":[[[-178.7,70.9],[-177.6,71.25],[-180,71.5],[-180,70.85],[-178.7,70.9]]]},"properties":{"featurecla":"Land","scalerank":0,"min_zoom":0}},
{"type":"Feature","geometry":{"type":"Polygon","coordinates":[[[-90.55,69.5],[-92.9,71.3],[-95.2,71.9],[-96.4,71.2],[-96.45,70.1],[-94.25,69.05],[-94.7,68.05],[-97.65,68.6],[-98.45,67.8],[-101.45,67.65],[-104.35,68],[-106.15,68.8],[-108.15,68.65],[-109.95,68],[-113.5,67.7],[-113.9,68.4],[-119.95,69.4],[-121.45,69.8],[-125.75,69.5],[-127.45,70.4],[-129.8,70.2],[-132.95,69.5],[-134.4,69.65],[-136.5,68.9],[-143.6,70.15],[-144.9,70],[-152.25,70.6],[-156.6,71.35],[-161.9,70.35],[-165.4,68.05],[-161.7,66.1],[-163.8,66.1],[-164.45,66.6],[-168.1,65.65],[-166.45,64.7],[-164.95,64.45],[-162.45,64.55],[-160.95,64.2],[-163.05,63.05],[-164.55,63.15],[-166.1,61.5],[-165.35,60.5],[-163.8,59.8],[-161.85,59.65],[-161.95,58.65],[-160.35,59.05],[-159.05,58.4],[-157.55,58.35],[-157.7,57.55],[-160.55,56],[-158.45,56],[-156.55,57],[-156.3,57.4],[-154.25,58.15],[-153.3,58.85],[-154,59.35],[-152.6,60.05],[-151.7,59.15],[-148,60],[-147.1,60.9],[-143.95,60],[-142.55,60.1],[-139.85,59.55],[-137.8,58.5],[-136.65,58.2],[-134.1,58.1],[-133.55,57.2],[-132.25,56.35],[-131.95,55.5],[-130.55,54.8],[-130.5,54.3],[-129.3,53.55],[-129.15,52.75],[-127.85,52.35],[-127.45,50.85],[-125.6,50.4],[-122.95,49],[-122.5,48.2],[-124.7,48.2],[-124.1,46.85],[-123.9,45.5],[-124.15,43.7],[-124.55,42.75],[-124.2,42],[-124.4,40.3],[-123.75,38.95],[-122.95,38.1],[-121.7,36.15],[-120.35,34.45],[-118.5,34.05],[-117.3,33.05],[-116.7,31.65],[-115.5,29.55],[-114.15,28.55],[-114.45,27.15],[-112.3,26],[-112.2,24.75],[-110.3,23.45],[-109.4,23.35],[-110.7,24.85],[-111.6,26.65],[-112.75,27.8],[-112.95,28.45],[-114.65,30.15],[-114.8,31.8],[-113.15,31.15],[-113.15,30.8],[-112.25,28.95],[-110.4,27.15],[-109.3,26.45],[-109.45,25.8],[-108.4,25.15],[-106.05,22.75],[-105.25,21.1],[-105.75,20.45],[-105,19.3],[-103.5,18.3],[-101.9,17.9],[-100.85,17.15],[-96.55,15.65],[-94.7,16.2],[-93.35,15.6],[-92.25,14.55],[-91.25,13.95],[-87.9,13.15],[-85.7,11.1],[-85.8,10.15],[-83.65,9.05],[-82.95,8.25],[-81.7,8.1],[-80.9,7.2],[-80.5,8.1],[-79.1,9],[-78.6,8.7],[-78.2,7.5],[-77.5,6.7],[-77.55,5.6],[-77.15,3.85],[-77.95,2.7],[-78.45,2.65],[-78.85,1.4],[-80.1,0.75],[-80,0.35],[-80.6,-0.9],[-80.95,-1.05],[-80.3,-3.4],[-81.1,-4.05],[-81.4,-4.75],[-80.95,-5.7],[-81.25,-6.15],[-79.75,-7.2],[-79.05,-8.4],[-77.1,-12.2],[-76.25,-13.55],[-76,-14.65],[-73.45,-16.35],[-71.45,-17.35],[-71.4,-17.75],[-70.35,-18.35],[-70.1,-21.4],[-70.7,-25.7],[-70.9,-27.65],[-71.5,-28.85],[-71.35,-30.1],[-71.65,-30.9],[-71.45,-32.4],[-71.85,-33.9],[-73.15,-37.1],[-73.6,-37.15],[-73.2,-39.25],[-73.7,-39.95],[-74.35,-43.2],[-73.7,-43.35],[-73.4,-42.1],[-72.7,-42.4],[-73.25,-44.45],[-74.35,-44.1],[-74.7,-45.75],[-75.65,-46.65],[-74.15,-46.95],[-75.2,-47.7],[-75.6,-48.65],[-75.5,-50.4],[-75,-51.05],[-74.95,-52.25],[-72.55,-53.55],[-71,-53.85],[-70.85,-52.9],[-68.8,-51.75],[-69.15,-50.75],[-67.8,-49.85],[-67.15,-48.7],[-66,-48.15],[-65.65,-47.25],[-66.6,-47.05],[-67.6,-46.3],[-66.5,-45.05],[-65.55,-45.05],[-65.2,-43.5],[-64.4,-42.85],[-65,-42.05],[-65.1,-41.05],[-63.75,-41.15],[-62.15,-40.7],[-62.35,-38.85],[-61.25,-38.95],[-59.25,-38.7],[-57.75,-38.2],[-56.8,-36.9],[-57.35,-36],[-57.15,-34.45],[-56.2,-34.85],[-54.95,-34.95],[-53.8,-34.4],[-52.7,-33.2],[-52.25,-32.25],[-50.7,-31],[-49.6,-29.2],[-48.9,-28.65],[-48.45,-27.2],[-48.5,-25.9],[-47.65,-24.9],[-46.45,-24.1],[-44.65,-23.35],[-43.05,-22.95],[-42,-22.95],[-41.75,-22.35],[-40.95,-21.95],[-40.75,-20.9],[-39.75,-19.6],[-39.6,-18.25],[-39.25,-17.85],[-38.9,-15.65],[-38.95,-13.8],[-37.7,-12.15],[-37.05,-11.05],[-35.15,-9],[-34.75,-7.35],[-35.25,-5.45],[-35.6,-5.15],[-37.2,-4.8],[-38.5,-3.7],[-40,-2.85],[-41.45,-2.9],[-44.4,-2.15],[-44.9,-1.55],[-48.6,-0.25],[-50.4,-0.1],[-49.95,1.05],[-50.5,1.9],[-51.3,4.2],[-52.9,5.4],[-55.05,6.05],[-55.95,5.75],[-57.15,5.95],[-59.1,8],[-60.15,8.6],[-61.6,9.85],[-62.4,9.95],[-62.75,10.4],[-64.3,10.65],[-64.9,10.1],[-66.25,10.65],[-68.2,10.55],[-68.9,11.45],[-70.15,11.4],[-71.4,10.95],[-71.05,9.85],[-71.7,9.05],[-72.05,9.85],[-71.15,12.1],[-71.75,12.45],[-73.4,11.25],[-74.2,11.3],[-75.5,10.6],[-75.65,9.45],[-76.85,8.65],[-78.05,9.25],[-79.55,9.6],[-81.45,8.8],[-82.2,9.2],[-83.4,10.4],[-83.85,11.35],[-83.45,12.4],[-83.55,13.15],[-83.15,15],[-84.35,15.85],[-86,16],[-86.45,15.8],[-88.95,15.9],[-88.35,16.55],[-88.1,18.1],[-87.85,18.25],[-87.4,20.25],[-86.85,20.85],[-87.05,21.55],[-88.55,21.5],[-90.3,21],[-90.75,19.3],[-91.4,18.9],[-94.45,18.15],[-94.85,18.55],[-95.9,18.85],[-97.2,20.65],[-97.85,22.45],[-97.7,24.25],[-97.15,25.85],[-97.35,27.4],[-96.6,28.3],[-95.6,28.75],[-94.7,29.5],[-93.25,29.8],[-91.65,29.7],[-90.9,29.15],[-89.4,29.15],[-89.6,30.2],[-88.4,30.4],[-86.4,30.4],[-85.1,29.65],[-83.7,29.95],[-82.65,28.55],[-82.85,27.9],[-81.7,25.85],[-81.15,25.2],[-80.4,25.2],[-80.05,26.9],[-81,29.2],[-81.5,30.75],[-81.35,31.45],[-80.3,32.5],[-79.2,33.15],[-78.55,33.85],[-76.35,34.8],[-75.75,35.55],[-76.3,37.9],[-75.7,37.95],[-74.2,39.7],[-74,40.65],[-71.95,40.95],[-70.65,41.5],[-70.8,42.85],[-70.1,43.7],[-68.05,44.35],[-67.15,45.15],[-64.45,45.3],[-66.15,44.45],[-66.1,43.6],[-65.35,43.55],[-63.25,44.65],[-61.05,45.25],[-59.8,45.9],[-60.45,46.3],[-61.5,45.9],[-63.15,45.75],[-64.45,46.25],[-65.1,48.05],[-64.15,48.75],[-65.05,49.25],[-66.55,49.15],[-69.95,47.75],[-68.5,49.05],[-67.25,49.5],[-66.4,50.25],[-63.85,50.3],[-61.7,50.1],[-60.05,50.25],[-58.75,51.05],[-57.15,51.4],[-55.7,52.15],[-55.75,53.25],[-56.95,53.8],[-57.35,54.65],[-59.55,55.2],[-61.8,56.35],[-61.4,56.95],[-64.6,60.35],[-66.2,58.75],[-67.65,58.2],[-69.3,58.95],[-69.6,61.05],[-71.35,61.15],[-73.85,62.45],[-74.65,62.2],[-77.4,62.55],[-78.1,62.3],[-77.35,59.85],[-78.5,58.8],[-77.3,58.05],[-76.55,56.55],[-78.25,55.15],[-79.85,54.65],[-79.1,54.15],[-78.6,52.55],[-79.15,51.55],[-79.9,51.2],[-81.4,52.15],[-82.45,54.3],[-82.25,55.15],[-85,55.3],[-87.3,56],[-89.05,56.85],[-90.9,57.3],[-92.3,57.1],[-93.2,58.8],[-94.7,58.95],[-94.65,60.1],[-93.15,62],[-91.95,62.85],[-90.75,62.95],[-89.9,64.05],[-88.5,64.1],[-87.3,64.8],[-86.05,66.05],[-83.35,66.4],[-81.4,67.1],[-81.95,68.15],[-81.3,69.15],[-82.6,69.65],[-85.5,69.9],[-85.6,68.8],[-87.35,67.2],[-88.3,67.85],[-88,68.6],[-90.55,69.5]]]},"properties":{"featurecla":"Land","scalerank":0,"min_zoom":0}},
{"type":"Feature","geometry":{"type":"Polygon","coordinates":[[[-114.15,73.1],[-117.85,72.7],[-119.4,71.55],[-117.65,71.3],[-117.9,70.55],[-116.1,69.15],[-113.3,68.55],[-109,68.8],[-105.95,69.2],[-102.45,68.75],[-101,70],[-104.45,71],[-105.4,72.65],[-107.5,73.25],[-111.05,72.45],[-114.15,73.1]]]},"properties":{"featurecla":"Land","scalerank":0,"min_zoom":0}},
{"type":"Feature","geometry":{"type":"Polygon","coordinates":[[[-104.5,73.4],[-106.95,73.45],[-105.4,72.75],[-104.5,73.4]]]},"properties":{"featurecla":"Land","scalerank":0,"min_zoom":1.5}},
{"type":"Feature","geometry":{"type":"Polygon","coordinates":[[[-76.35,73.1],[-80.35,73.75],[-79.8,72.8],[-76.35,73.1]]]},"properties":{"featurecla":"Land","scalerank":0,"min_zoom":1}},
{"type":"Feature","geometry":{"type":"Polygon","coordinates":[[[-86.55,73.15],[-88.4,73.55],[-90.2,72.25],[-89.5,70.75],[-88.7,70.4],[-84.95,69.95],[-81.3,69.75],[-77.3,69.75],[-74.85,68.55],[-73.3,68.05],[-72.65,67.3],[-74.3,65.8],[-77.9,65.3],[-77.7,64.25],[-74.8,64.4],[-71.9,63.7],[-71,62.9],[-68.9,62.35],[-66.15,61.95],[-66.3,62.95],[-64.65,63.4],[-65.3,64.4],[-68.15,65.7],[-66.7,66.4],[-63.9,65],[-62.15,66.15],[-64.85,67.85],[-68.8,68.7],[-66.95,69.2],[-68.8,70.55],[-71.2,70.9],[-77.8,72.75],[-80.6,72.7],[-82.3,73.75],[-86.55,73.15]]]},"properties":{"featurecla":"Land","scalerank":0,"min_zoom":0}},
{"type":"Feature","geometry":{"type":"Polygon","coordinates":[[[-100.35,73.85],[-102.5,72.5],[-98.35,71.25],[-96.7,71.65],[-97.1,73.45],[-100.35,73.85]]]},"properties":{"featurecla":"Land","scalerank":0,"min_zoom":0}},
{"type":"Feature","geometry":{"type":"Polygon","coordinates":[[[143.6,73.2],[142.05,73.85],[140.05,73.3],[143.6,73.2]]]},"properties":{"featurecla":"Land","scalerank":0,"min_zoom":1}},
{"type":"Feature","geometry":{"type":"Polygon","coordinates":[[[-93.2,72.75],[-90.5,73.85],[-94.5,74.15],[-96.05,72.95],[-93.2,72.75]]]},"properties":{"featurecla":"Land","scalerank":0,"min_zoom":0.5}},
{"type":"Feature","geometry":{"type":"Polygon","coordinates":[[[-120.45,71.4],[-119.2,72.5],[-115.5,73.5],[-117.55,74.2],[-121.55,74.45],[-124.9,74.3],[-123.95,73.7],[-125.95,71.85],[-123.1,70.9],[-120.45,71.4]]]},"properties":{"featurecla":"Land","scalerank":0,"min_zoom":0}},
{"type":"Feature","geometry":{"type":"Polygon","coordinates":[[[150.75,75.1],[146.35,75.5],[146.1,75.15],[149.6,74.7],[150.75,75.1]]]},"properties":{"featurecla":"Land","scalerank":0,"min_zoom":1}},
{"type":"Feature","geometry":{"type":"Polygon","coordinates":[[[-93.6,75],[-94.85,75.65],[-96.8,74.95],[-93.6,75]]]},"properties":{"featurecla":"Land","scalerank":1,"min_zoom":1.5}},
{"type":"Feature","geometry":{"type":"Polygon","coordinates":[[[145.1,75.55],[141.45,76.1],[137.5,75.95],[136.95,75.25],[138.95,74.6],[144.3,74.8],[145.1,75.55]]]},"properties":{"featurecla":"Land","scalerank":0,"min_zoom":0}},
{"type":"Feature","geometry":{"type":"Polygon","coordinates":[[[-98.5,76.7],[-101.5,76.3],[-100.9,75.05],[-98.15,75],[-98.5,76.7]]]},"properties":{"featurecla":"Land","scalerank":0,"min_zoom":0}},
{"type":"Feature","geometry":{"type":"Polygon","coordinates":[[[-108.2,76.2],[-109.05,75.45],[-115.4,76.5],[-117.7,75.2],[-112.2,74.4],[-106.3,75],[-105.9,75.95],[-108.2,76.2]]]},"properties":{"featurecla":"Land","scalerank":0,"min_zoom":0}},
{"type":"Feature","geometry":{"type":"Polygon","coordinates":[[[57.55,70.7],[55.6,71.55],[55.4,72.35],[58.5,74.3],[61.6,75.25],[68.2,76.25],[61.15,76.25],[55.65,75.1],[55.9,74.65],[53.5,73.75],[51.45,72],[51.6,71.45],[53.7,70.75],[57.55,70.7]]]},"properties":{"featurecla":"Land","scalerank":0,"min_zoom":0}},
{"type":"Feature","geometry":{"type":"Polygon","coordinates":[[[-94.7,77.1],[-92.4,74.85],[-88.15,74.4],[-83.25,74.55],[-79.85,74.9],[-81.15,75.7],[-86.4,75.5],[-89.2,75.6],[-91.6,76.8],[-94.7,77.1]]]},"properties":{"featurecla":"Land","scalerank":0,"min_zoom":0}},
{"type":"Feature","geometry":{"type":"Polygon","coordinates":[[[-116.2,77.65],[-119.1,77.5],[-122.85,76.1],[-119.9,76.05],[-116.35,76.9],[-116.2,77.65]]]},"properties":{"featurecla":"Land","scalerank":1,"min_zoom":0.5}},
{"type":"Feature","geometry":{"type":"Polygon","coordinates":[[[106.95,76.95],[104.35,77.7],[98.9,76.45],[87.15,75.1],[86.8,73.95],[80.5,73.65],[79.65,72.3],[75.7,72.3],[73.1,71.45],[72.6,72.8],[69.95,73.05],[68.55,71.95],[66.7,71.05],[66.95,69.45],[69.2,68.6],[68.5,68.1],[63.5,69.55],[60.55,69.85],[61.1,68.95],[57.3,68.45],[53.5,68.2],[53.7,68.85],[48.15,67.5],[46.35,66.65],[45.55,67.55],[43.95,66.05],[42.1,66.5],[39.75,65.5],[39.6,64.5],[37.2,65.15],[34.95,64.4],[34.8,65.9],[33.9,66.75],[38.4,66],[41.15,66.8],[40.3,67.95],[36.5,69.05],[33.8,69.3],[31.3,70.45],[28.15,71.2],[24.55,71.05],[23,70.2],[19.2,69.8],[14.75,67.8],[12.35,65.9],[10.55,64.5],[8.55,63.45],[5.9,62.6],[5,61.95],[5.65,58.6],[7.05,58.1],[8.4,58.3],[10.35,59.45],[11.05,58.85],[12.65,56.3],[12.95,55.35],[14.1,55.4],[14.65,56.2],[15.9,56.1],[16.45,57.05],[16.85,58.7],[17.85,58.95],[18.8,60.1],[17.1,61.35],[17.85,62.75],[21.35,64.4],[22.2,65.7],[23.9,66],[25.4,65.1],[22.45,63.8],[21.05,62.6],[21.55,61.7],[21.3,60.7],[22.85,59.85],[26.25,60.4],[28.05,60.5],[29.1,60.05],[28,59.5],[25.85,59.6],[23.35,59.2],[24.45,58.4],[24.1,57.05],[22.5,57.75],[21.1,56.8],[21.25,55.2],[19.65,54.45],[17.6,54.85],[14.1,53.75],[12.5,54.45],[11.95,54.2],[9.95,54.6],[9.65,55.45],[10.35,56.2],[10.25,56.9],[8.55,57.1],[8.1,55.5],[8.8,54],[6.9,53.5],[4.7,53.1],[3.85,51.6],[1.65,50.95],[1.35,50.15],[-1,49.35],[-1.6,48.65],[-3.3,48.9],[-4.6,48.7],[-4.5,47.95],[-2.95,47.55],[-1.2,46],[-1.4,44],[-1.9,43.4],[-4.35,43.4],[-8,43.75],[-9.4,43.05],[-9,42.6],[-8.75,40.75],[-9.55,38.75],[-8.85,38.25],[-8.9,36.85],[-7.45,37.1],[-6.5,36.95],[-5.4,35.95],[-4.35,36.7],[-2.15,36.65],[-1.45,37.45],[-0.7,37.65],[0.1,38.75],[-0.3,39.3],[0.8,41],[2.1,41.25],[3.05,41.9],[3.1,43.1],[4.55,43.4],[6.55,43.15],[8.9,44.35],[10.2,43.9],[10.5,42.95],[12.1,41.7],[13.65,41.2],[15.4,40.05],[16.45,39.8],[17.5,40.9],[15.9,41.55],[14.05,42.75],[13.55,43.6],[12.6,44.1],[12.35,45.4],[13.15,45.75],[14.9,45.1],[15.15,44.25],[16,43.5],[18.9,42.3],[19.55,41.7],[19.4,40.25],[21.1,38.3],[21.65,36.85],[22.5,36.4],[22.8,37.3],[24.05,37.65],[24.05,38.2],[22.95,38.95],[22.85,39.65],[24.4,40.15],[24.95,40.95],[26.05,40.8],[26.35,40.15],[28.1,41.6],[27.65,42.6],[28.55,43.7],[28.85,44.9],[29.6,45.3],[30.75,46.6],[33.3,46.1],[32.45,45.35],[33.55,45.05],[33.9,44.35],[35.25,44.95],[34.95,46.25],[37.45,47],[38.25,46.25],[37.4,45.4],[37.55,44.65],[38.7,44.3],[40.3,43.15],[41.45,42.65],[41.55,41.55],[40.35,41],[38.35,40.95],[35.15,42.05],[33.5,42],[31.15,41.1],[29.25,41.2],[28.8,40.45],[27.3,40.4],[26.15,39.45],[26.8,39],[26.3,38.2],[27.05,37.65],[27.65,36.65],[28.75,36.7],[29.7,36.15],[30.6,36.7],[31.7,36.65],[32.5,36.1],[34.05,36.2],[34.7,36.8],[35.55,36.55],[36.15,35.8],[36,34.65],[34.95,32.85],[34.25,31.2],[33,31],[31,31.55],[30.1,31.45],[28.9,30.85],[26.5,31.6],[25.15,31.55],[24.9,31.9],[23.25,32.2],[22.9,32.65],[20.85,32.7],[19.8,31.75],[20.05,31],[19.1,30.25],[18,30.75],[15.7,31.4],[15.25,32.25],[13.9,32.7],[12.65,32.8],[11.1,33.3],[10.15,34.35],[10.8,34.85],[10.95,35.7],[9.5,37.35],[8.4,36.95],[6.25,37.1],[4.8,36.85],[1.45,36.6],[-0.15,35.9],[-1.2,35.7],[-2.15,35.15],[-4.6,35.35],[-5.95,35.75],[-6.9,34.1],[-8.65,33.25],[-9.3,32.55],[-9.8,31.2],[-9.55,29.95],[-11.7,28.15],[-12.6,28.05],[-13.75,26.6],[-14.45,26.25],[-15.1,24.5],[-16,23.7],[-16.25,22.7],[-16.95,21.9],[-17.05,21],[-16.3,20.1],[-16.15,18.1],[-16.45,16.15],[-17.2,14.9],[-16.7,13.6],[-16.6,12.15],[-16.1,11.5],[-14.85,10.9],[-14.6,10.2],[-13.25,8.9],[-12.95,7.8],[-11.45,6.8],[-9,4.85],[-7.5,4.35],[-5.85,5],[-4,5.2],[-1.95,4.7],[1.05,5.95],[2.7,6.25],[4.35,6.25],[5.05,5.6],[5.9,4.25],[6.7,4.25],[8.5,4.75],[8.95,3.9],[9.8,3.05],[9.3,1.15],[9.5,1],[8.8,-1.1],[9.4,-2.15],[11.1,-4],[11.9,-5.05],[12.75,-6.95],[13.25,-8.55],[12.9,-9.15],[13.7,-10.75],[13.65,-12.05],[12.75,-13.15],[12.2,-14.45],[11.65,-16.65],[11.8,-18.05],[12.6,-19.05],[13.35,-20.85],[14.25,-22.1],[14.4,-23.85],[15.2,-27.1],[16.35,-28.6],[18.2,-31.65],[18.25,-33.85],[19.6,-34.8],[22.55,-33.85],[25.8,-33.95],[28.2,-32.75],[30.05,-31.15],[31.35,-29.4],[32.45,-28.3],[33,-25.35],[35.05,-24.5],[35.45,-24.1],[35.55,-22.1],[34.7,-20.5],[34.8,-19.8],[36.3,-18.65],[37.4,-17.6],[39.45,-16.7],[40.1,-16.1],[40.8,-14.7],[40.6,-14.2],[40.5,-10.75],[39.95,-10.1],[39.2,-8.5],[39.45,-6.85],[38.75,-5.9],[39.2,-4.7],[39.6,-4.35],[40.25,-2.55],[41.6,-1.7],[43.15,0.3],[46.55,2.85],[48.6,5.35],[49.45,6.8],[50.55,9.2],[51.05,10.65],[51.1,12],[49.25,11.45],[48.4,11.4],[46.65,10.8],[44.1,10.45],[43.45,11.3],[43.3,12.4],[41.2,14.5],[39.25,15.9],[38.4,18],[37.5,18.6],[37.1,19.8],[37.2,21],[36.85,22],[35.55,23.1],[35.7,23.95],[34.1,26.15],[33.35,27.7],[35.15,28.05],[36.95,25.6],[37.5,24.3],[38.5,23.7],[39.05,22.6],[39.15,21.3],[39.8,20.35],[40.95,19.5],[41.75,17.85],[42.65,16.75],[42.7,15.7],[43.2,13.2],[43.5,12.65],[45,12.7],[45.65,13.3],[47.35,13.6],[48.7,14],[49.55,14.7],[52.15,15.6],[52.4,16.4],[54.25,17.05],[55.25,17.25],[55.65,17.9],[56.3,17.9],[56.6,18.55],[57.8,19.05],[57.65,19.75],[58.5,20.45],[59.8,22.3],[58.75,23.55],[57.4,23.9],[56.4,24.9],[56.25,25.7],[55.45,25.45],[54,24.1],[51.8,24],[51.4,24.65],[51.6,25.8],[50.1,25.95],[50.15,26.7],[48.8,27.7],[48.1,29.3],[48.95,30.3],[50.1,30.15],[51.5,27.85],[52.5,27.6],[53.5,26.8],[54.7,26.5],[56.5,27.15],[56.95,26.95],[57.4,25.75],[61.5,25.1],[64.55,25.25],[66.35,25.45],[67.45,23.95],[69.35,22.85],[69.15,22.1],[70.45,20.9],[71.2,20.75],[72.65,21.35],[72.8,19.2],[73.55,16],[74.45,14.6],[74.85,12.75],[75.75,11.3],[76.6,8.9],[77.55,7.95],[78.9,9.55],[79.35,10.3],[79.85,10.35],[79.85,12.05],[80.3,13],[80.05,15.15],[80.3,15.9],[82.2,16.55],[82.2,17],[83.95,18.3],[85.05,19.5],[86.5,20.15],[87.05,20.75],[87,21.5],[90.25,21.85],[90.5,22.8],[91.4,22.75],[92.35,20.65],[94.3,18.2],[94.55,17.3],[94.2,16.05],[95.35,15.7],[97.15,16.95],[97.6,16.1],[98.1,13.65],[98.5,13.1],[98.45,12.05],[98.75,11.45],[98.45,10.7],[98.5,8.4],[99.5,7.35],[100.3,6.05],[100.2,5.3],[100.7,3.95],[101.4,2.75],[103.5,1.25],[104.25,1.3],[103.85,2.5],[103.5,2.8],[103.4,4.85],[102.95,5.5],[101.6,6.75],[100.45,7.45],[99.85,9.2],[99.2,9.25],[99.15,9.95],[100,12.3],[100.1,13.4],[101,13.4],[100.85,12.65],[101.7,12.65],[102.6,12.2],[103.5,10.65],[104.35,10.5],[105.1,9.9],[104.8,9.25],[105.15,8.6],[107.2,10.35],[109.2,11.65],[109.35,13.45],[108.9,15.3],[108.25,16.1],[107.35,16.7],[105.65,19.05],[105.9,19.75],[106.7,20.7],[108.5,21.7],[109.85,21.4],[109.9,20.3],[110.45,20.35],[110.8,21.4],[111.85,21.55],[114.15,22.2],[114.75,22.65],[115.9,22.8],[118.65,24.55],[119.6,25.75],[121.15,28.15],[121.7,28.25],[122.1,29.85],[121.25,30.7],[121.9,30.95],[121.9,31.7],[120.6,33.4],[120.25,34.35],[119.15,34.9],[119.65,35.6],[121.1,36.65],[122.5,36.95],[122.35,37.45],[120.8,37.85],[119.7,37.15],[118.05,38.05],[117.55,38.75],[119,39.25],[119.65,39.9],[121.65,40.95],[122.15,40.4],[121.4,39.75],[122.15,39.15],[122.85,39.65],[124.25,39.95],[125.4,39.4],[124.7,38.1],[126.15,37.75],[126.1,36.75],[126.55,35.7],[126.5,34.4],[127.4,34.5],[129.1,35.1],[129.45,35.65],[129.45,36.8],[127.55,39.75],[129.7,40.9],[129.65,41.6],[130.4,42.3],[132.3,43.3],[133.55,42.8],[134.85,43.4],[138.2,46.3],[138.55,47],[140.05,48.45],[140.6,51.25],[141.4,52.25],[141.35,53.1],[139.9,54.2],[137.2,54],[136.7,54.6],[135.15,54.75],[138.95,57.1],[142.2,59.05],[145.5,59.35],[148.55,59.15],[149.8,59.65],[151.35,59.5],[151.25,58.8],[155.05,59.15],[154.2,59.75],[156.7,61.45],[159.3,61.75],[160.1,60.55],[162.65,61.65],[163.25,62.45],[164.45,62.55],[163.65,61.15],[161.85,60.35],[158.35,58.05],[156.8,57.85],[155.9,56.75],[155.45,55.4],[156,53.15],[156.8,51],[158.25,51.95],[158.55,52.95],[160,53.2],[160.35,54.35],[162.1,54.85],[162.15,56.1],[163.05,56.15],[163.2,57.6],[162,58.25],[163.55,59.85],[166.3,59.8],[168.9,60.55],[170.7,60.35],[173.7,61.65],[177.35,62.5],[179.25,62.3],[179.35,63],[178.3,64.1],[180,65],[180,68.95],[175.7,69.9],[170.45,70.1],[170.8,69],[169.6,68.7],[167.85,69.6],[164.05,69.65],[160.95,69.45],[159.85,70.45],[157,71.05],[152.95,70.85],[150.35,71.6],[149.5,72.2],[140.45,72.85],[139.15,72.4],[139.85,71.5],[133.85,71.4],[131.3,70.8],[128.45,72],[128.6,73.05],[127,73.55],[123.25,73.75],[123.2,72.95],[119,73.1],[118.8,73.6],[113.95,73.6],[109.4,74.2],[113.9,75.35],[114.15,75.85],[111.1,76.7],[106.95,76.95]],[[49.1,41.3],[47.5,43],[47.6,43.65],[46.7,44.6],[47.7,45.65],[48.65,45.8],[49.1,46.4],[51.2,47.05],[53.05,46.85],[53.05,45.25],[51.3,45.25],[50.9,44.05],[51.35,43.15],[52.5,42.8],[52.9,41.85],[53.7,42.1],[54.75,40.95],[53.85,40.65],[52.9,40.9],[52.7,40.05],[53.1,39.3],[53.9,38.95],[53.85,36.95],[52.25,36.7],[50.85,36.85],[49.2,37.6],[48.85,38.8],[49.2,39.05],[49.6,40.55],[49.1,41.3]]]},"properties":{"featurecla":"Land","scalerank":0,"min_zoom":0}},
{"type":"Feature","geometry":{"type":"Polygon","coordinates":[[[-93.85,77.5],[-94.4,77.8],[-96.45,77.85],[-96.15,77.55],[-93.85,77.5]]]},"properties":{"featurecla":"Land","scalerank":1,"min_zoom":1.5}},
{"type":"Feature","geometry":{"type":"Polygon","coordinates":[[[-110.2,77.7],[-112.7,78.05],[-113.55,77.75],[-112.05,77.4],[-110.2,77.7]]]},"properties":{"featurecla":"Land","scalerank":1,"min_zoom":1}},
{"type":"Feature","geometry":{"type":"Polygon","coordinates":[[[24.7,77.85],[22.9,78.45],[20.8,78.25],[22.5,77.45],[24.7,77.85]]]},"properties":{"featurecla":"Land","scalerank":1,"min_zoom":1}},
{"type":"Feature","geometry":{"type":"Polygon","coordinates":[[[-109.65,78.6],[-111.5,78.85],[-112.55,78.4],[-109.65,78.6]]]},"properties":{"featurecla":"Land","scalerank":1,"min_zoom":1.5}},
{"type":"Feature","geometry":{"type":"Polygon","coordinates":[[[-95.85,78.05],[-95.55,78.4],[-98.65,78.85],[-98.1,78.1],[-95.85,78.05]]]},"properties":{"featurecla":"Land","scalerank":1,"min_zoom":1}},
{"type":"Feature","geometry":{"type":"Polygon","coordinates":[[[-100.05,78.3],[-100.85,78.8],[-105.4,78.9],[-101.3,78],[-100.05,78.3]]]},"properties":{"featurecla":"Land","scalerank":1,"min_zoom":0.5}},
{"type":"Feature","geometry":{"type":"Polygon","coordinates":[[[105.1,78.3],[101.25,79.25],[99.45,77.9],[105.1,78.3]]]},"properties":{"featurecla":"Land","scalerank":0,"min_zoom":0.5}},
{"type":"Feature","geometry":{"type":"Polygon","coordinates":[[[18.25,79.7],[17,80.05],[10.45,79.65],[13.75,77.4],[17.1,76.8],[19.05,78.55],[21.55,78.95],[18.25,79.7]]]},"properties":{"featurecla":"Land","scalerank":0,"min_zoom":0}},
{"type":"Feature","geometry":{"type":"Polygon","coordinates":[[[25.45,80.4],[22.9,80.65],[17.35,80.3],[20.1,79.55],[25.9,79.5],[25.45,80.4]]]},"properties":{"featurecla":"Land","scalerank":0,"min_zoom":0}},
{"type":"Feature","geometry":{"type":"Polygon","coordinates":[[[51.15,80.55],[46.8,80.75],[46.5,80.25],[51.15,80.55]]]},"properties":{"featurecla":"Land","scalerank":1,"min_zoom":1}},
{"type":"Feature","geometry":{"type":"Polygon","coordinates":[[[99.95,78.9],[100.2,79.8],[95.95,81.25],[91.2,80.35],[93.3,79.45],[97.75,78.75],[99.95,78.9]]]},"properties":{"featurecla":"Land","scalerank":0,"min_zoom":0}},
{"type":"Feature","geometry":{"type":"Polygon","coordinates":[[[-87,79.65],[-87.8,80.3],[-94.75,81.2],[-96.7,80.15],[-92.9,78.35],[-89.05,78.3],[-85.8,79.35],[-87,79.65]]]},"properties":{"featurecla":"Land","scalerank":0,"min_zoom":0}},
{"type":"Feature","geometry":{"type":"Polygon","coordinates":[[[-68.5,83.1],[-79.3,83.15],[-91.6,81.9],[-89.35,80.85],[-87.6,80.5],[-85.1,79.35],[-88.25,77.9],[-87.75,77.2],[-89.5,76.45],[-80.55,76.2],[-77.9,76.8],[-79.75,77.2],[-75.4,78.55],[-76.2,79],[-71.2,79.8],[-61.9,82.35],[-68.5,83.1]]]},"properties":{"featurecla":"Land","scalerank":0,"min_zoom":0}},
{"type":"Feature","geometry":{"type":"Polygon","coordinates":[[[-27.1,83.5],[-38.6,83.55],[-46.75,82.65],[-62.65,81.75],[-68,80.1],[-65.7,79.4],[-73.15,78.45],[-73.3,78.05],[-68.8,77.3],[-71.4,77],[-68.5,76.05],[-61.25,76.1],[-58.6,75.5],[-54.7,72.6],[-55.85,71.65],[-54,71.55],[-54.7,69.6],[-51.5,68.75],[-53,68.35],[-53.95,67.2],[-53.65,66.1],[-52.3,65.2],[-51.65,63.65],[-48.25,60.85],[-46.25,60.85],[-44.8,60.05],[-43.4,60.1],[-42.4,61.9],[-42.8,62.7],[-41.2,63.5],[-40.65,64.85],[-39.8,65.45],[-36.35,66],[-34.2,66.7],[-32.8,67.75],[-27.75,68.45],[-22.35,70.15],[-21.75,70.65],[-23.45,72.1],[-19.35,74.3],[-19.85,76.1],[-18.45,77],[-19.7,78.75],[-17.75,80.15],[-12.2,81.3],[-15.75,81.9],[-20.6,81.5],[-20.85,82.75],[-27.1,83.5]]]},"properties":{"featurecla":"Land","scalerank":0,"min_zoom":0}}
]}